{
  "features": [
    {
      "geometry": {
        "coordinates": [
          106.711127,
          10.8000068
        ],
        "type": "Point"
      },
      "properties": {
        "id": "O001",
        "kind": "order",
        "label": "Xô Viết Nghệ Tĩnh · điểm demo A1",
        "region": "binh-thanh"
      },
      "type": "Feature"
    },
    {
      "geometry": {
        "coordinates": [
          106.7105563,
          10.7969974
        ],
        "type": "Point"
      },
      "properties": {
        "id": "O002",
        "kind": "order",
        "label": "Xô Viết Nghệ Tĩnh · điểm demo A2",
        "region": "binh-thanh"
      },
      "type": "Feature"
    },
    {
      "geometry": {
        "coordinates": [
          106.7086502,
          10.7940173
        ],
        "type": "Point"
      },
      "properties": {
        "id": "O003",
        "kind": "order",
        "label": "Xô Viết Nghệ Tĩnh · điểm demo A3",
        "region": "binh-thanh"
      },
      "type": "Feature"
    },
    {
      "geometry": {
        "coordinates": [
          106.7325839,
          10.8022333
        ],
        "type": "Point"
      },
      "properties": {
        "id": "O004",
        "kind": "order",
        "label": "Quốc Hương · điểm demo B1",
        "region": "thu-duc"
      },
      "type": "Feature"
    },
    {
      "geometry": {
        "coordinates": [
          106.7313377,
          10.8052739
        ],
        "type": "Point"
      },
      "properties": {
        "id": "O005",
        "kind": "order",
        "label": "Quốc Hương / Tống Hữu Định · điểm demo B2",
        "region": "thu-duc"
      },
      "type": "Feature"
    },
    {
      "geometry": {
        "coordinates": [
          106.7319609,
          10.8094347
        ],
        "type": "Point"
      },
      "properties": {
        "id": "O006",
        "kind": "order",
        "label": "Nguyễn Văn Hưởng · điểm demo B3",
        "region": "thu-duc"
      },
      "type": "Feature"
    },
    {
      "geometry": {
        "coordinates": [
          106.7161639,
          10.8022693
        ],
        "type": "Point"
      },
      "properties": {
        "id": "DEPOT",
        "kind": "depot"
      },
      "type": "Feature"
    },
    {
      "geometry": {
        "coordinates": [
          106.7317751,
          10.8039263
        ],
        "type": "Point"
      },
      "properties": {
        "id": "PICKUP O007",
        "kind": "urgent"
      },
      "type": "Feature"
    },
    {
      "geometry": {
        "coordinates": [
          106.7309516,
          10.8071385
        ],
        "type": "Point"
      },
      "properties": {
        "id": "O007",
        "kind": "urgent"
      },
      "type": "Feature"
    },
    {
      "geometry": {
        "coordinates": [
          [
            [
              106.7161639,
              10.8022693
            ],
            [
              106.7156494,
              10.8024345
            ]
          ],
          [
            [
              106.7156494,
              10.8024345
            ],
            [
              106.7153425,
              10.8015544
            ]
          ],
          [
            [
              106.7153425,
              10.8015544
            ],
            [
              106.7151913,
              10.8011725
            ]
          ],
          [
            [
              106.7151913,
              10.8011725
            ],
            [
              106.7151566,
              10.8010848
            ]
          ],
          [
            [
              106.7151566,
              10.8010848
            ],
            [
              106.7151083,
              10.8009447
            ]
          ],
          [
            [
              106.7151083,
              10.8009447
            ],
            [
              106.7143821,
              10.8011736
            ],
            [
              106.7138232,
              10.8013303
            ],
            [
              106.7137439,
              10.8013538
            ],
            [
              106.7136674,
              10.8013713
            ],
            [
              106.7135281,
              10.8013985
            ]
          ],
          [
            [
              106.7135281,
              10.8013985
            ],
            [
              106.7134138,
              10.8014664
            ],
            [
              106.7132418,
              10.8015103
            ],
            [
              106.7131216,
              10.8015241
            ]
          ],
          [
            [
              106.7131216,
              10.8015241
            ],
            [
              106.7130545,
              10.8015306
            ]
          ],
          [
            [
              106.7130545,
              10.8015306
            ],
            [
              106.7123487,
              10.8015877
            ]
          ],
          [
            [
              106.7123487,
              10.8015877
            ],
            [
              106.7122063,
              10.8015922
            ]
          ],
          [
            [
              106.7122063,
              10.8015922
            ],
            [
              106.7120682,
              10.8015941
            ]
          ],
          [
            [
              106.7120682,
              10.8015941
            ],
            [
              106.7118158,
              10.8015976
            ]
          ],
          [
            [
              106.7118158,
              10.8015976
            ],
            [
              106.711759,
              10.8015984
            ]
          ],
          [
            [
              106.711759,
              10.8015984
            ],
            [
              106.7117144,
              10.8015962
            ]
          ],
          [
            [
              106.7117144,
              10.8015962
            ],
            [
              106.7115512,
              10.8016017
            ]
          ],
          [
            [
              106.7115512,
              10.8016017
            ],
            [
              106.7115195,
              10.8016372
            ],
            [
              106.7114819,
              10.8016666
            ],
            [
              106.7114473,
              10.8016858
            ]
          ],
          [
            [
              106.7114473,
              10.8016858
            ],
            [
              106.7113637,
              10.8017085
            ],
            [
              106.7112853,
              10.8017058
            ],
            [
              106.7112111,
              10.8016809
            ]
          ],
          [
            [
              106.7112111,
              10.8016809
            ],
            [
              106.7111607,
              10.8016479
            ],
            [
              106.7111192,
              10.8016046
            ],
            [
              106.7110915,
              10.8015651
            ]
          ],
          [
            [
              106.7110915,
              10.8015651
            ],
            [
              106.7110741,
              10.8015072
            ],
            [
              106.7110655,
              10.801439
            ],
            [
              106.7110736,
              10.8013817
            ],
            [
              106.7110941,
              10.8013276
            ],
            [
              106.7111262,
              10.8012791
            ]
          ],
          [
            [
              106.7111262,
              10.8012791
            ],
            [
              106.711172,
              10.8012358
            ],
            [
              106.7112269,
              10.8012043
            ]
          ],
          [
            [
              106.7112269,
              10.8012043
            ],
            [
              106.7112129,
              10.8010704
            ]
          ],
          [
            [
              106.7112129,
              10.8010704
            ],
            [
              106.7111784,
              10.8007419
            ]
          ],
          [
            [
              106.7111784,
              10.8007419
            ],
            [
              106.7111766,
              10.8006965
            ]
          ],
          [
            [
              106.7111766,
              10.8006965
            ],
            [
              106.7111656,
              10.8004261
            ],
            [
              106.7111572,
              10.8003353
            ]
          ],
          [
            [
              106.7111572,
              10.8003353
            ],
            [
              106.711127,
              10.8000068
            ]
          ],
          [
            [
              106.711127,
              10.8000068
            ],
            [
              106.7110937,
              10.7995023
            ]
          ],
          [
            [
              106.7110937,
              10.7995023
            ],
            [
              106.7110934,
              10.7994993
            ],
            [
              106.7110878,
              10.7993971
            ],
            [
              106.71104,
              10.7988773
            ]
          ],
          [
            [
              106.71104,
              10.7988773
            ],
            [
              106.7110148,
              10.7986338
            ]
          ],
          [
            [
              106.7110148,
              10.7986338
            ],
            [
              106.7109663,
              10.7983397
            ],
            [
              106.7109177,
              10.7981651
            ],
            [
              106.710862,
              10.7979275
            ]
          ],
          [
            [
              106.710862,
              10.7979275
            ],
            [
              106.7107152,
              10.7973988
            ],
            [
              106.7105563,
              10.7969974
            ]
          ],
          [
            [
              106.7105563,
              10.7969974
            ],
            [
              106.7102115,
              10.7961029
            ]
          ],
          [
            [
              106.7102115,
              10.7961029
            ],
            [
              106.710075,
              10.7957696
            ],
            [
              106.7099808,
              10.7955821
            ],
            [
              106.7099707,
              10.7955668
            ]
          ],
          [
            [
              106.7099707,
              10.7955668
            ],
            [
              106.7098494,
              10.7953859
            ]
          ],
          [
            [
              106.7098494,
              10.7953859
            ],
            [
              106.7092918,
              10.7947991
            ]
          ],
          [
            [
              106.7092918,
              10.7947991
            ],
            [
              106.7091223,
              10.7946213
            ]
          ],
          [
            [
              106.7091223,
              10.7946213
            ],
            [
              106.7087372,
              10.7942151
            ]
          ],
          [
            [
              106.7087372,
              10.7942151
            ],
            [
              106.708371,
              10.7938214
            ]
          ],
          [
            [
              106.708371,
              10.7938214
            ],
            [
              106.707995,
              10.7934287
            ]
          ],
          [
            [
              106.707995,
              10.7934287
            ],
            [
              106.7080454,
              10.793381
            ]
          ],
          [
            [
              106.7080454,
              10.793381
            ],
            [
              106.7084006,
              10.7937554
            ]
          ],
          [
            [
              106.7084006,
              10.7937554
            ],
            [
              106.7086502,
              10.7940173
            ]
          ],
          [
            [
              106.7086502,
              10.7940173
            ],
            [
              106.7092558,
              10.7946567
            ]
          ],
          [
            [
              106.7092558,
              10.7946567
            ],
            [
              106.7093592,
              10.7947682
            ]
          ],
          [
            [
              106.7093592,
              10.7947682
            ],
            [
              106.7098927,
              10.7953441
            ]
          ],
          [
            [
              106.7098927,
              10.7953441
            ],
            [
              106.7100037,
              10.7954638
            ]
          ],
          [
            [
              106.7100037,
              10.7954638
            ],
            [
              106.7101009,
              10.7956461
            ]
          ],
          [
            [
              106.7101009,
              10.7956461
            ],
            [
              106.7101609,
              10.7957957
            ]
          ],
          [
            [
              106.7101609,
              10.7957957
            ],
            [
              106.71024,
              10.7960032
            ]
          ],
          [
            [
              106.71024,
              10.7960032
            ],
            [
              106.7102824,
              10.7961105
            ]
          ],
          [
            [
              106.7102824,
              10.7961105
            ],
            [
              106.7103684,
              10.796315
            ]
          ],
          [
            [
              106.7103684,
              10.796315
            ],
            [
              106.7104951,
              10.7966427
            ]
          ],
          [
            [
              106.7104951,
              10.7966427
            ],
            [
              106.7105504,
              10.7967857
            ]
          ],
          [
            [
              106.7105504,
              10.7967857
            ],
            [
              106.7106277,
              10.7969808
            ]
          ],
          [
            [
              106.7106277,
              10.7969808
            ],
            [
              106.7107835,
              10.7973815
            ]
          ],
          [
            [
              106.7107835,
              10.7973815
            ],
            [
              106.7108993,
              10.7977903
            ]
          ],
          [
            [
              106.7108993,
              10.7977903
            ],
            [
              106.7109278,
              10.7979102
            ]
          ],
          [
            [
              106.7109278,
              10.7979102
            ],
            [
              106.7109909,
              10.798147
            ]
          ],
          [
            [
              106.7109909,
              10.798147
            ],
            [
              106.7110401,
              10.7983236
            ]
          ],
          [
            [
              106.7110401,
              10.7983236
            ],
            [
              106.7110915,
              10.7986187
            ]
          ],
          [
            [
              106.7110915,
              10.7986187
            ],
            [
              106.7111093,
              10.7988066
            ],
            [
              106.7111631,
              10.7993918
            ]
          ],
          [
            [
              106.7111631,
              10.7993918
            ],
            [
              106.7111687,
              10.7994936
            ]
          ],
          [
            [
              106.7111687,
              10.7994936
            ],
            [
              106.7112012,
              10.7998102
            ],
            [
              106.7112076,
              10.799873
            ]
          ],
          [
            [
              106.7112076,
              10.799873
            ],
            [
              106.7112278,
              10.8000095
            ],
            [
              106.7112672,
              10.8004461
            ]
          ],
          [
            [
              106.7112672,
              10.8004461
            ],
            [
              106.7112997,
              10.8006438
            ]
          ],
          [
            [
              106.7112997,
              10.8006438
            ],
            [
              106.7113535,
              10.80103
            ]
          ],
          [
            [
              106.7113535,
              10.80103
            ],
            [
              106.7113575,
              10.801059
            ]
          ],
          [
            [
              106.7113575,
              10.801059
            ],
            [
              106.7113752,
              10.8011855
            ]
          ],
          [
            [
              106.7113752,
              10.8011855
            ],
            [
              106.7114463,
              10.8012065
            ],
            [
              106.7115088,
              10.8012458
            ],
            [
              106.711558,
              10.8013004
            ]
          ],
          [
            [
              106.711558,
              10.8013004
            ],
            [
              106.7115921,
              10.8013729
            ],
            [
              106.7116026,
              10.8014521
            ],
            [
              106.7115886,
              10.8015308
            ],
            [
              106.7115512,
              10.8016017
            ]
          ],
          [
            [
              106.7115512,
              10.8016017
            ],
            [
              106.7115195,
              10.8016372
            ],
            [
              106.7114819,
              10.8016666
            ],
            [
              106.7114473,
              10.8016858
            ]
          ],
          [
            [
              106.7114473,
              10.8016858
            ],
            [
              106.7114251,
              10.8018075
            ]
          ],
          [
            [
              106.7114251,
              10.8018075
            ],
            [
              106.7114137,
              10.80187
            ],
            [
              106.7114233,
              10.8020619
            ]
          ],
          [
            [
              106.7114233,
              10.8020619
            ],
            [
              106.7114321,
              10.8024689
            ]
          ],
          [
            [
              106.7114321,
              10.8024689
            ],
            [
              106.7113925,
              10.802663
            ]
          ],
          [
            [
              106.7113925,
              10.802663
            ],
            [
              106.711403,
              10.8028254
            ]
          ],
          [
            [
              106.711403,
              10.8028254
            ],
            [
              106.7114049,
              10.8028599
            ],
            [
              106.7114094,
              10.8029423
            ]
          ],
          [
            [
              106.7114094,
              10.8029423
            ],
            [
              106.7114553,
              10.803787
            ]
          ],
          [
            [
              106.7114553,
              10.803787
            ],
            [
              106.7115528,
              10.803802
            ],
            [
              106.7119969,
              10.8037971
            ]
          ],
          [
            [
              106.7119969,
              10.8037971
            ],
            [
              106.712119,
              10.8037957
            ]
          ],
          [
            [
              106.712119,
              10.8037957
            ],
            [
              106.712184,
              10.8037949
            ]
          ],
          [
            [
              106.712184,
              10.8037949
            ],
            [
              106.7124105,
              10.8037605
            ],
            [
              106.7126547,
              10.8036982
            ]
          ],
          [
            [
              106.7126547,
              10.8036982
            ],
            [
              106.7126812,
              10.8038834
            ]
          ],
          [
            [
              106.7126812,
              10.8038834
            ],
            [
              106.7129398,
              10.8038543
            ]
          ],
          [
            [
              106.7129398,
              10.8038543
            ],
            [
              106.713021,
              10.8038452
            ],
            [
              106.7133087,
              10.8038121
            ]
          ],
          [
            [
              106.7133087,
              10.8038121
            ],
            [
              106.7136588,
              10.8037683
            ]
          ],
          [
            [
              106.7136588,
              10.8037683
            ],
            [
              106.7139341,
              10.8037339
            ],
            [
              106.7144154,
              10.8036436
            ]
          ],
          [
            [
              106.7144154,
              10.8036436
            ],
            [
              106.7142977,
              10.8032235
            ]
          ],
          [
            [
              106.7142977,
              10.8032235
            ],
            [
              106.7152049,
              10.8029751
            ]
          ],
          [
            [
              106.7152049,
              10.8029751
            ],
            [
              106.7151378,
              10.8026028
            ]
          ],
          [
            [
              106.7151378,
              10.8026028
            ],
            [
              106.7156494,
              10.8024345
            ]
          ],
          [
            [
              106.7156494,
              10.8024345
            ],
            [
              106.7161639,
              10.8022693
            ]
          ]
        ],
        "type": "MultiLineString"
      },
      "properties": {
        "kind": "baseline-route",
        "orderIds": [
          "O001",
          "O002",
          "O003"
        ],
        "qaOnly": true,
        "vehicleId": "V1"
      },
      "type": "Feature"
    },
    {
      "geometry": {
        "coordinates": [
          [
            [
              106.7161639,
              10.8022693
            ],
            [
              106.7156494,
              10.8024345
            ]
          ],
          [
            [
              106.7156494,
              10.8024345
            ],
            [
              106.7153425,
              10.8015544
            ]
          ],
          [
            [
              106.7153425,
              10.8015544
            ],
            [
              106.7151913,
              10.8011725
            ]
          ],
          [
            [
              106.7151913,
              10.8011725
            ],
            [
              106.7151566,
              10.8010848
            ]
          ],
          [
            [
              106.7151566,
              10.8010848
            ],
            [
              106.7151083,
              10.8009447
            ]
          ],
          [
            [
              106.7151083,
              10.8009447
            ],
            [
              106.7143821,
              10.8011736
            ],
            [
              106.7138232,
              10.8013303
            ],
            [
              106.7137439,
              10.8013538
            ],
            [
              106.7136674,
              10.8013713
            ],
            [
              106.7135281,
              10.8013985
            ]
          ],
          [
            [
              106.7135281,
              10.8013985
            ],
            [
              106.7134138,
              10.8014664
            ],
            [
              106.7132418,
              10.8015103
            ],
            [
              106.7131216,
              10.8015241
            ]
          ],
          [
            [
              106.7131216,
              10.8015241
            ],
            [
              106.7130545,
              10.8015306
            ]
          ],
          [
            [
              106.7130545,
              10.8015306
            ],
            [
              106.7123487,
              10.8015877
            ]
          ],
          [
            [
              106.7123487,
              10.8015877
            ],
            [
              106.7121937,
              10.8015269
            ],
            [
              106.7118524,
              10.8015361
            ],
            [
              106.711838,
              10.8015329
            ],
            [
              106.7118237,
              10.8015259
            ],
            [
              106.7118155,
              10.8015155
            ],
            [
              106.7118097,
              10.8015051
            ],
            [
              106.7118035,
              10.8014788
            ],
            [
              106.711802,
              10.80146
            ],
            [
              106.7117969,
              10.8012898
            ]
          ],
          [
            [
              106.7117969,
              10.8012898
            ],
            [
              106.7118071,
              10.8012897
            ],
            [
              106.7119071,
              10.8012885
            ]
          ],
          [
            [
              106.7119071,
              10.8012885
            ],
            [
              106.7120159,
              10.8012858
            ],
            [
              106.7125377,
              10.8012727
            ]
          ],
          [
            [
              106.7125377,
              10.8012727
            ],
            [
              106.7127428,
              10.8012729
            ]
          ],
          [
            [
              106.7127428,
              10.8012729
            ],
            [
              106.712921,
              10.8012789
            ]
          ],
          [
            [
              106.712921,
              10.8012789
            ],
            [
              106.7134153,
              10.8012709
            ]
          ],
          [
            [
              106.7134153,
              10.8012709
            ],
            [
              106.7136569,
              10.8012206
            ],
            [
              106.713904,
              10.8011582
            ]
          ],
          [
            [
              106.713904,
              10.8011582
            ],
            [
              106.714048,
              10.801113
            ],
            [
              106.7149749,
              10.8008414
            ],
            [
              106.7155203,
              10.8006535
            ],
            [
              106.715675,
              10.8005886
            ]
          ],
          [
            [
              106.715675,
              10.8005886
            ],
            [
              106.7159791,
              10.800461
            ]
          ],
          [
            [
              106.7159791,
              10.800461
            ],
            [
              106.7164544,
              10.8002337
            ]
          ],
          [
            [
              106.7164544,
              10.8002337
            ],
            [
              106.716642,
              10.8001381
            ]
          ],
          [
            [
              106.716642,
              10.8001381
            ],
            [
              106.7166772,
              10.8000322
            ],
            [
              106.7167865,
              10.7999419
            ]
          ],
          [
            [
              106.7167865,
              10.7999419
            ],
            [
              106.7168721,
              10.7998842
            ],
            [
              106.7173368,
              10.7996626
            ]
          ],
          [
            [
              106.7173368,
              10.7996626
            ],
            [
              106.7179711,
              10.7993417
            ]
          ],
          [
            [
              106.7179711,
              10.7993417
            ],
            [
              106.7181328,
              10.7992375
            ],
            [
              106.7184594,
              10.7990457
            ],
            [
              106.719051,
              10.798709
            ],
            [
              106.719435,
              10.7984814
            ]
          ],
          [
            [
              106.719435,
              10.7984814
            ],
            [
              106.7196786,
              10.7983467
            ],
            [
              106.7199295,
              10.7981906
            ]
          ],
          [
            [
              106.7199295,
              10.7981906
            ],
            [
              106.7200517,
              10.7981048
            ]
          ],
          [
            [
              106.7200517,
              10.7981048
            ],
            [
              106.7201768,
              10.7980492
            ],
            [
              106.7202774,
              10.7980083
            ],
            [
              106.7203036,
              10.7979976
            ],
            [
              106.720492,
              10.7979318
            ]
          ],
          [
            [
              106.720492,
              10.7979318
            ],
            [
              106.7207977,
              10.7978472
            ],
            [
              106.721121,
              10.7977775
            ]
          ],
          [
            [
              106.721121,
              10.7977775
            ],
            [
              106.7213293,
              10.7977514
            ],
            [
              106.7214454,
              10.7977369
            ]
          ],
          [
            [
              106.7214454,
              10.7977369
            ],
            [
              106.7221663,
              10.7977356
            ]
          ],
          [
            [
              106.7221663,
              10.7977356
            ],
            [
              106.7223358,
              10.7977476
            ],
            [
              106.7225013,
              10.7977639
            ],
            [
              106.7226664,
              10.7977845
            ],
            [
              106.7228308,
              10.7978095
            ],
            [
              106.7320699,
              10.7995169
            ]
          ],
          [
            [
              106.7320699,
              10.7995169
            ],
            [
              106.7322708,
              10.7996579
            ]
          ],
          [
            [
              106.7322708,
              10.7996579
            ],
            [
              106.732629,
              10.7997458
            ]
          ],
          [
            [
              106.732629,
              10.7997458
            ],
            [
              106.7327774,
              10.7996968
            ],
            [
              106.7330251,
              10.7996151
            ]
          ],
          [
            [
              106.7330251,
              10.7996151
            ],
            [
              106.7330836,
              10.7995907
            ],
            [
              106.7331306,
              10.7995626
            ],
            [
              106.7331675,
              10.7995362
            ],
            [
              106.733203,
              10.7995033
            ],
            [
              106.7332717,
              10.7994181
            ]
          ],
          [
            [
              106.7332717,
              10.7994181
            ],
            [
              106.7333281,
              10.799225
            ]
          ],
          [
            [
              106.7333281,
              10.799225
            ],
            [
              106.7333139,
              10.7991871
            ]
          ],
          [
            [
              106.7333139,
              10.7991871
            ],
            [
              106.7332796,
              10.7990897
            ],
            [
              106.733184,
              10.7989499
            ],
            [
              106.733046,
              10.7988074
            ],
            [
              106.732915,
              10.7987031
            ],
            [
              106.7321824,
              10.7983867
            ],
            [
              106.7320648,
              10.7983377
            ],
            [
              106.7318936,
              10.7982963
            ],
            [
              106.7316323,
              10.7982655
            ]
          ],
          [
            [
              106.7316323,
              10.7982655
            ],
            [
              106.7316055,
              10.7982629
            ],
            [
              106.7314997,
              10.7982613
            ]
          ],
          [
            [
              106.7314997,
              10.7982613
            ],
            [
              106.7313341,
              10.7982596
            ]
          ],
          [
            [
              106.7313341,
              10.7982596
            ],
            [
              106.7308494,
              10.7982738
            ],
            [
              106.7305473,
              10.7983207
            ],
            [
              106.7303102,
              10.7984013
            ]
          ],
          [
            [
              106.7303102,
              10.7984013
            ],
            [
              106.7301793,
              10.7984458
            ],
            [
              106.7300023,
              10.7985571
            ],
            [
              106.7298253,
              10.7987309
            ],
            [
              106.7297121,
              10.7988873
            ],
            [
              106.7296709,
              10.7989674
            ],
            [
              106.729649,
              10.7990225
            ],
            [
              106.7295868,
              10.7993139
            ]
          ],
          [
            [
              106.7295868,
              10.7993139
            ],
            [
              106.7295085,
              10.7998272
            ]
          ],
          [
            [
              106.7295085,
              10.7998272
            ],
            [
              106.7294875,
              10.8000393
            ]
          ],
          [
            [
              106.7294875,
              10.8000393
            ],
            [
              106.729498,
              10.8000881
            ],
            [
              106.7295157,
              10.8001375
            ],
            [
              106.7295464,
              10.800188
            ],
            [
              106.7295688,
              10.8002306
            ],
            [
              106.729592,
              10.8002617
            ],
            [
              106.729602,
              10.8002841
            ],
            [
              106.7296284,
              10.8003208
            ],
            [
              106.7296542,
              10.8003515
            ],
            [
              106.7297245,
              10.8004061
            ],
            [
              106.7298131,
              10.8004697
            ]
          ],
          [
            [
              106.7298131,
              10.8004697
            ],
            [
              106.7299105,
              10.8004828
            ],
            [
              106.7309119,
              10.8005547
            ],
            [
              106.7322298,
              10.8006531
            ]
          ],
          [
            [
              106.7322298,
              10.8006531
            ],
            [
              106.7324454,
              10.8006627
            ]
          ],
          [
            [
              106.7324454,
              10.8006627
            ],
            [
              106.7326179,
              10.8006765
            ]
          ],
          [
            [
              106.7326179,
              10.8006765
            ],
            [
              106.7326295,
              10.8007714
            ]
          ],
          [
            [
              106.7326295,
              10.8007714
            ],
            [
              106.7326864,
              10.8009182
            ]
          ],
          [
            [
              106.7326864,
              10.8009182
            ],
            [
              106.7327082,
              10.8009702
            ]
          ],
          [
            [
              106.7327082,
              10.8009702
            ],
            [
              106.7327262,
              10.8010914
            ]
          ],
          [
            [
              106.7327262,
              10.8010914
            ],
            [
              106.7327181,
              10.8012519
            ],
            [
              106.7327089,
              10.8016097
            ],
            [
              106.7326908,
              10.8017266
            ]
          ],
          [
            [
              106.7326908,
              10.8017266
            ],
            [
              106.7326644,
              10.8019219
            ]
          ],
          [
            [
              106.7326644,
              10.8019219
            ],
            [
              106.732648,
              10.8019928
            ]
          ],
          [
            [
              106.732648,
              10.8019928
            ],
            [
              106.7325839,
              10.8022333
            ]
          ],
          [
            [
              106.7325839,
              10.8022333
            ],
            [
              106.7323247,
              10.8032802
            ]
          ],
          [
            [
              106.7323247,
              10.8032802
            ],
            [
              106.7323142,
              10.8033179
            ]
          ],
          [
            [
              106.7323142,
              10.8033179
            ],
            [
              106.7326892,
              10.8033861
            ]
          ],
          [
            [
              106.7326892,
              10.8033861
            ],
            [
              106.7336814,
              10.8035666
            ]
          ],
          [
            [
              106.7336814,
              10.8035666
            ],
            [
              106.7336667,
              10.8036322
            ]
          ],
          [
            [
              106.7336667,
              10.8036322
            ],
            [
              106.7335111,
              10.8042518
            ]
          ],
          [
            [
              106.7335111,
              10.8042518
            ],
            [
              106.7326513,
              10.8040906
            ]
          ],
          [
            [
              106.7326513,
              10.8040906
            ],
            [
              106.7317751,
              10.8039263
            ]
          ],
          [
            [
              106.7317751,
              10.8039263
            ],
            [
              106.7317246,
              10.8040524
            ]
          ],
          [
            [
              106.7317246,
              10.8040524
            ],
            [
              106.7315525,
              10.8045775
            ]
          ],
          [
            [
              106.7315525,
              10.8045775
            ],
            [
              106.7313377,
              10.8052739
            ]
          ],
          [
            [
              106.7313377,
              10.8052739
            ],
            [
              106.7311952,
              10.8057302
            ],
            [
              106.7311822,
              10.8058945
            ],
            [
              106.7312019,
              10.8060519
            ]
          ],
          [
            [
              106.7312019,
              10.8060519
            ],
            [
              106.7312083,
              10.806148
            ],
            [
              106.7309516,
              10.8071385
            ]
          ],
          [
            [
              106.7309516,
              10.8071385
            ],
            [
              106.7307749,
              10.8078206
            ]
          ],
          [
            [
              106.7307749,
              10.8078206
            ],
            [
              106.7306757,
              10.8081862
            ]
          ],
          [
            [
              106.7306757,
              10.8081862
            ],
            [
              106.7313741,
              10.8083717
            ]
          ],
          [
            [
              106.7313741,
              10.8083717
            ],
            [
              106.7315916,
              10.8084294
            ],
            [
              106.7316147,
              10.8084359
            ]
          ],
          [
            [
              106.7316147,
              10.8084359
            ],
            [
              106.7320422,
              10.8085559
            ],
            [
              106.7324607,
              10.8086771
            ],
            [
              106.7326645,
              10.8088036
            ]
          ],
          [
            [
              106.7326645,
              10.8088036
            ],
            [
              106.7319609,
              10.8094347
            ]
          ],
          [
            [
              106.7319609,
              10.8094347
            ],
            [
              106.7326645,
              10.8088036
            ]
          ],
          [
            [
              106.7326645,
              10.8088036
            ],
            [
              106.7327804,
              10.8087039
            ]
          ],
          [
            [
              106.7327804,
              10.8087039
            ],
            [
              106.7328045,
              10.8086822
            ]
          ],
          [
            [
              106.7328045,
              10.8086822
            ],
            [
              106.7329896,
              10.808524
            ]
          ],
          [
            [
              106.7329896,
              10.808524
            ],
            [
              106.7332077,
              10.8083364
            ]
          ],
          [
            [
              106.7332077,
              10.8083364
            ],
            [
              106.7333958,
              10.8081746
            ]
          ],
          [
            [
              106.7333958,
              10.8081746
            ],
            [
              106.7337629,
              10.807838
            ]
          ],
          [
            [
              106.7337629,
              10.807838
            ],
            [
              106.7343683,
              10.807075
            ],
            [
              106.7347935,
              10.8066465
            ]
          ],
          [
            [
              106.7347935,
              10.8066465
            ],
            [
              106.7354482,
              10.8060213
            ]
          ],
          [
            [
              106.7354482,
              10.8060213
            ],
            [
              106.7362389,
              10.805215
            ]
          ],
          [
            [
              106.7362389,
              10.805215
            ],
            [
              106.7368747,
              10.8044723
            ]
          ],
          [
            [
              106.7368747,
              10.8044723
            ],
            [
              106.7370982,
              10.8041878
            ]
          ],
          [
            [
              106.7370982,
              10.8041878
            ],
            [
              106.7373262,
              10.8039594
            ],
            [
              106.737499,
              10.8036536
            ]
          ],
          [
            [
              106.737499,
              10.8036536
            ],
            [
              106.7375735,
              10.8035236
            ]
          ],
          [
            [
              106.7375735,
              10.8035236
            ],
            [
              106.737624,
              10.8034183
            ],
            [
              106.7378002,
              10.8030964
            ]
          ],
          [
            [
              106.7378002,
              10.8030964
            ],
            [
              106.737904,
              10.8028992
            ]
          ],
          [
            [
              106.737904,
              10.8028992
            ],
            [
              106.738132,
              10.8024879
            ]
          ],
          [
            [
              106.738132,
              10.8024879
            ],
            [
              106.7382123,
              10.8023219
            ]
          ],
          [
            [
              106.7382123,
              10.8023219
            ],
            [
              106.7382382,
              10.8022383
            ],
            [
              106.7382728,
              10.8020906
            ],
            [
              106.7382749,
              10.8019722
            ],
            [
              106.7382686,
              10.8018951
            ],
            [
              106.7382239,
              10.8015328
            ]
          ],
          [
            [
              106.7382239,
              10.8015328
            ],
            [
              106.7382179,
              10.8014767
            ]
          ],
          [
            [
              106.7382179,
              10.8014767
            ],
            [
              106.7381896,
              10.8013465
            ]
          ],
          [
            [
              106.7381896,
              10.8013465
            ],
            [
              106.7381729,
              10.8012628
            ],
            [
              106.7381769,
              10.8011355
            ]
          ],
          [
            [
              106.7381769,
              10.8011355
            ],
            [
              106.736716,
              10.8008548
            ]
          ],
          [
            [
              106.736716,
              10.8008548
            ],
            [
              106.7363577,
              10.8007886
            ],
            [
              106.7360829,
              10.8007379
            ],
            [
              106.734215,
              10.8003725
            ],
            [
              106.7336863,
              10.8002644
            ],
            [
              106.7333708,
              10.8001879
            ],
            [
              106.7330646,
              10.8001111
            ],
            [
              106.7328496,
              10.8000649
            ]
          ],
          [
            [
              106.7328496,
              10.8000649
            ],
            [
              106.7327571,
              10.8000395
            ],
            [
              106.732443,
              10.7999718
            ],
            [
              106.7323151,
              10.7999457
            ]
          ],
          [
            [
              106.7323151,
              10.7999457
            ],
            [
              106.7321118,
              10.7999042
            ],
            [
              106.731968,
              10.7998775
            ],
            [
              106.7317145,
              10.7998305
            ]
          ],
          [
            [
              106.7317145,
              10.7998305
            ],
            [
              106.7240086,
              10.7983964
            ],
            [
              106.7234139,
              10.7982857
            ],
            [
              106.7228617,
              10.798183
            ],
            [
              106.7225973,
              10.7981344
            ]
          ],
          [
            [
              106.7225973,
              10.7981344
            ],
            [
              106.7224626,
              10.7981132
            ],
            [
              106.7223339,
              10.7980793
            ],
            [
              106.7222812,
              10.7980622
            ],
            [
              106.7222449,
              10.7980504
            ],
            [
              106.7221575,
              10.7980173
            ],
            [
              106.7220718,
              10.7979801
            ]
          ],
          [
            [
              106.7220718,
              10.7979801
            ],
            [
              106.7219238,
              10.7979865
            ],
            [
              106.7217761,
              10.7979989
            ],
            [
              106.721655,
              10.7980135
            ],
            [
              106.7215344,
              10.7980322
            ]
          ],
          [
            [
              106.7215344,
              10.7980322
            ],
            [
              106.7212974,
              10.7980671
            ],
            [
              106.7211245,
              10.7980987
            ],
            [
              106.7209931,
              10.7981338
            ],
            [
              106.7208351,
              10.7981786
            ],
            [
              106.7207891,
              10.7981991
            ],
            [
              106.720302,
              10.7984189
            ],
            [
              106.7201291,
              10.7985088
            ]
          ],
          [
            [
              106.7201291,
              10.7985088
            ],
            [
              106.7198329,
              10.798669
            ]
          ],
          [
            [
              106.7198329,
              10.798669
            ],
            [
              106.7193847,
              10.7989351
            ]
          ],
          [
            [
              106.7193847,
              10.7989351
            ],
            [
              106.719321,
              10.7990546
            ]
          ],
          [
            [
              106.719321,
              10.7990546
            ],
            [
              106.7193054,
              10.7990648
            ],
            [
              106.7191719,
              10.799149
            ]
          ],
          [
            [
              106.7191719,
              10.799149
            ],
            [
              106.7187479,
              10.7994049
            ]
          ],
          [
            [
              106.7187479,
              10.7994049
            ],
            [
              106.7184333,
              10.7995804
            ],
            [
              106.7180562,
              10.799778
            ],
            [
              106.7179525,
              10.7998299
            ]
          ],
          [
            [
              106.7179525,
              10.7998299
            ],
            [
              106.7174836,
              10.80006
            ]
          ],
          [
            [
              106.7174836,
              10.80006
            ],
            [
              106.7171356,
              10.8002308
            ]
          ],
          [
            [
              106.7171356,
              10.8002308
            ],
            [
              106.7170095,
              10.8002741
            ],
            [
              106.7168959,
              10.8003023
            ],
            [
              106.7167167,
              10.8002991
            ]
          ],
          [
            [
              106.7167167,
              10.8002991
            ],
            [
              106.7165178,
              10.8003961
            ]
          ],
          [
            [
              106.7165178,
              10.8003961
            ],
            [
              106.716034,
              10.8006008
            ]
          ],
          [
            [
              106.716034,
              10.8006008
            ],
            [
              106.7158053,
              10.8006917
            ],
            [
              106.7157273,
              10.8007223
            ]
          ],
          [
            [
              106.7157273,
              10.8007223
            ],
            [
              106.7156171,
              10.8009191
            ]
          ],
          [
            [
              106.7156171,
              10.8009191
            ],
            [
              106.7151566,
              10.8010848
            ]
          ],
          [
            [
              106.7151566,
              10.8010848
            ],
            [
              106.7151913,
              10.8011725
            ]
          ],
          [
            [
              106.7151913,
              10.8011725
            ],
            [
              106.7153425,
              10.8015544
            ]
          ],
          [
            [
              106.7153425,
              10.8015544
            ],
            [
              106.7156494,
              10.8024345
            ]
          ],
          [
            [
              106.7156494,
              10.8024345
            ],
            [
              106.7161639,
              10.8022693
            ]
          ]
        ],
        "type": "MultiLineString"
      },
      "properties": {
        "kind": "baseline-route",
        "orderIds": [
          "O004",
          "O005",
          "O006"
        ],
        "qaOnly": true,
        "vehicleId": "V2"
      },
      "type": "Feature"
    },
    {
      "geometry": {
        "coordinates": [
          [
            [
              106.7325839,
              10.8022333
            ],
            [
              106.7323247,
              10.8032802
            ]
          ],
          [
            [
              106.7323247,
              10.8032802
            ],
            [
              106.7323142,
              10.8033179
            ]
          ],
          [
            [
              106.7323142,
              10.8033179
            ],
            [
              106.7326892,
              10.8033861
            ]
          ],
          [
            [
              106.7326892,
              10.8033861
            ],
            [
              106.7336814,
              10.8035666
            ]
          ],
          [
            [
              106.7336814,
              10.8035666
            ],
            [
              106.7338153,
              10.803591
            ]
          ],
          [
            [
              106.7338153,
              10.803591
            ],
            [
              106.7354279,
              10.8038843
            ]
          ],
          [
            [
              106.7354279,
              10.8038843
            ],
            [
              106.735403,
              10.803931
            ]
          ],
          [
            [
              106.735403,
              10.803931
            ],
            [
              106.7350586,
              10.8045345
            ]
          ],
          [
            [
              106.7350586,
              10.8045345
            ],
            [
              106.7350912,
              10.8045405
            ],
            [
              106.7362127,
              10.8051996
            ]
          ],
          [
            [
              106.7362127,
              10.8051996
            ],
            [
              106.7362389,
              10.805215
            ]
          ],
          [
            [
              106.7362389,
              10.805215
            ],
            [
              106.7354482,
              10.8060213
            ]
          ],
          [
            [
              106.7354482,
              10.8060213
            ],
            [
              106.7347935,
              10.8066465
            ]
          ],
          [
            [
              106.7347935,
              10.8066465
            ],
            [
              106.7343683,
              10.807075
            ],
            [
              106.7337629,
              10.807838
            ]
          ],
          [
            [
              106.7337629,
              10.807838
            ],
            [
              106.7333958,
              10.8081746
            ]
          ],
          [
            [
              106.7333958,
              10.8081746
            ],
            [
              106.7332077,
              10.8083364
            ]
          ],
          [
            [
              106.7332077,
              10.8083364
            ],
            [
              106.7329896,
              10.808524
            ]
          ],
          [
            [
              106.7329896,
              10.808524
            ],
            [
              106.7328045,
              10.8086822
            ]
          ],
          [
            [
              106.7328045,
              10.8086822
            ],
            [
              106.7327804,
              10.8087039
            ]
          ],
          [
            [
              106.7327804,
              10.8087039
            ],
            [
              106.7326645,
              10.8088036
            ]
          ],
          [
            [
              106.7326645,
              10.8088036
            ],
            [
              106.7319609,
              10.8094347
            ]
          ]
        ],
        "type": "MultiLineString"
      },
      "properties": {
        "kind": "rain-route",
        "qaOnly": true,
        "weight": "fastest"
      },
      "type": "Feature"
    },
    {
      "geometry": {
        "coordinates": [
          [
            [
              106.7325839,
              10.8022333
            ],
            [
              106.7326171,
              10.8022377
            ],
            [
              106.7329183,
              10.8022955
            ],
            [
              106.732697,
              10.8033494
            ]
          ],
          [
            [
              106.732697,
              10.8033494
            ],
            [
              106.7326892,
              10.8033861
            ]
          ],
          [
            [
              106.7326892,
              10.8033861
            ],
            [
              106.7336814,
              10.8035666
            ]
          ],
          [
            [
              106.7336814,
              10.8035666
            ],
            [
              106.7336667,
              10.8036322
            ]
          ],
          [
            [
              106.7336667,
              10.8036322
            ],
            [
              106.7335111,
              10.8042518
            ]
          ],
          [
            [
              106.7335111,
              10.8042518
            ],
            [
              106.733378,
              10.8046471
            ]
          ],
          [
            [
              106.733378,
              10.8046471
            ],
            [
              106.7332,
              10.8051747
            ]
          ],
          [
            [
              106.7332,
              10.8051747
            ],
            [
              106.7337361,
              10.805369
            ]
          ],
          [
            [
              106.7337361,
              10.805369
            ],
            [
              106.7342864,
              10.8055684
            ]
          ],
          [
            [
              106.7342864,
              10.8055684
            ],
            [
              106.7351068,
              10.8058658
            ]
          ],
          [
            [
              106.7351068,
              10.8058658
            ],
            [
              106.7352743,
              10.8059239
            ],
            [
              106.7354253,
              10.8060085
            ]
          ],
          [
            [
              106.7354253,
              10.8060085
            ],
            [
              106.7354482,
              10.8060213
            ]
          ],
          [
            [
              106.7354482,
              10.8060213
            ],
            [
              106.7347935,
              10.8066465
            ]
          ],
          [
            [
              106.7347935,
              10.8066465
            ],
            [
              106.7343683,
              10.807075
            ],
            [
              106.7337629,
              10.807838
            ]
          ],
          [
            [
              106.7337629,
              10.807838
            ],
            [
              106.7333958,
              10.8081746
            ]
          ],
          [
            [
              106.7333958,
              10.8081746
            ],
            [
              106.7332077,
              10.8083364
            ]
          ],
          [
            [
              106.7332077,
              10.8083364
            ],
            [
              106.7329896,
              10.808524
            ]
          ],
          [
            [
              106.7329896,
              10.808524
            ],
            [
              106.7328045,
              10.8086822
            ]
          ],
          [
            [
              106.7328045,
              10.8086822
            ],
            [
              106.7327804,
              10.8087039
            ]
          ],
          [
            [
              106.7327804,
              10.8087039
            ],
            [
              106.7326645,
              10.8088036
            ]
          ],
          [
            [
              106.7326645,
              10.8088036
            ],
            [
              106.7319609,
              10.8094347
            ]
          ]
        ],
        "type": "MultiLineString"
      },
      "properties": {
        "kind": "rain-route",
        "qaOnly": true,
        "weight": "safer"
      },
      "type": "Feature"
    },
    {
      "geometry": {
        "coordinates": [
          [
            [
              106.73291441784941,
              10.80289594955959
            ],
            [
              106.73291441784941,
              10.80470405038765
            ],
            [
              106.73108558215058,
              10.80470405038765
            ],
            [
              106.73108558215058,
              10.80289594955959
            ],
            [
              106.73291441784941,
              10.80289594955959
            ]
          ]
        ],
        "type": "Polygon"
      },
      "properties": {
        "kind": "rain-polygon"
      },
      "type": "Feature"
    }
  ],
  "properties": {
    "attribution": "OpenStreetMap contributors, ODbL 1.0",
    "routes": "QA witnesses only"
  },
  "type": "FeatureCollection"
}
